GUOWANG GROUP 20 OBJECT*
1 68137U 26047J   26082.88983446 -.00000137  00000+0  91454-5 0  9991
2 68137  50.0081  12.5219 0000175 124.6965 235.3956 14.02259904  1568
CZ-8A R/B               
1 68138U 26047K   26086.87242167 -.00000087  00000+0  35879-4 0  9995
2 68138  49.9539 355.4859 0044759 200.7723 159.1366 14.12231882  2124
SHIYAN-30 03            
1 68139U 26048A   26086.50855541  .00002388  00000+0  23544-3 0  9993
2 68139  35.0011  37.2695 0003354 347.5173  12.5449 14.91714859  2169
SHIYAN-30 04            
1 68140U 26048B   26086.57620335  .00002292  00000+0  22601-3 0  9990
2 68140  34.9926  36.8710 0001863 344.7120  15.3528 14.91724163  2170
CZ-2D R/B               
1 68141U 26048C   26086.87484682  .00001611  00000+0  14505-3 0  9995
2 68141  35.1305  34.8862 0015006 125.7011 234.5095 14.95557605  2220
STARLINK-36604          
1 68142U 26049A   26086.83335647 -.00048034  00000+0 -25123-3 0  9999
2 68142  97.2839 106.9620 0001152 110.9656 248.9785 15.80832047  3545
STARLINK-36995          
1 68143U 26049B   26086.83335647  .00018229  00000+0  95748-4 0  9992
2 68143  97.2839 106.9635 0001104  92.1206 272.0961 15.80806777  3535
STARLINK-37020          
1 68144U 26049C   26086.58336806 -.00073810  00000+0 -38665-3 0  9996
2 68144  97.2842 106.7030 0001076 103.9893 287.0273 15.80884421  3497
STARLINK-36244          
1 68145U 26049D   26086.83335647 -.01271538  00000+0 -92722-2 0  9998
2 68145  97.2838 106.9677 0001544  92.0436 280.9411 15.76161261  3540
STARLINK-36980          
1 68146U 26049E   26086.83335647 -.00057655  00000+0 -30187-3 0  9998
2 68146  97.2840 106.9689 0001461  93.6316 283.4078 15.80842560  3538
STARLINK-37055          
1 68147U 26049F   26086.83335647 -.00014002  00000+0 -72461-4 0  9990
2 68147  97.2841 106.9645 0001253  92.3722 276.1116 15.80821228  3538
STARLINK-36981          
1 68148U 26049G   26086.83335647 -.00034971  00000+0 -18241-3 0  9993
2 68148  97.2841 106.9721 0001371  99.3902 286.1905 15.80833409  3533
STARLINK-36992          
1 68149U 26049H   26086.83335647  .00002674  00000+0  14693-4 0  9995
2 68149  97.2843 106.9740 0001204  85.0448 304.8055 15.80822239  3532
STARLINK-37060          
1 68150U 26049J   26086.83335647 -.00015739  00000+0 -81507-4 0  9993
2 68150  97.2842 106.9757 0001255 107.8985 286.2229 15.80834266  3535
STARLINK-37073          
1 68151U 26049K   26086.83335647 -.00044635  00000+0 -23319-3 0  9997
2 68151  97.2840 106.9775 0001126 112.5545 285.8408 15.80842572  3539
STARLINK-37049          
1 68152U 26049L   26086.83335647 -.00061704  00000+0 -32317-3 0  9992
2 68152  97.2841 106.9793 0001167  91.5690 311.0970 15.80850413  3532
