[{"OBJECT_NAME":"GUOWANG GROUP 20 OBJECT J","OBJECT_ID":"2026-047J","EPOCH":"2026-03-23T21:21:21.697344","MEAN_MOTION":14.02259904,"ECCENTRICITY":1.75e-5,"INCLINATION":50.0081,"RA_OF_ASC_NODE":12.5219,"ARG_OF_PERICENTER":124.6965,"MEAN_ANOMALY":235.3956,"EPHEMERIS_TYPE":0,"CLASSIFICATION_TYPE":"U","NORAD_CAT_ID":68137,"ELEMENT_SET_NO":999,"REV_AT_EPOCH":156,"BSTAR":9.1454e-6,"MEAN_MOTION_DOT":-1.37e-6,"MEAN_MOTION_DDOT":0},{"OBJECT_NAME":"CZ-8A R/B","OBJECT_ID":"2026-047K","EPOCH":"2026-03-27T20:56:17.232288","MEAN_MOTION":14.12231882,"ECCENTRICITY":0.0044759,"INCLINATION":49.9539,"RA_OF_ASC_NODE":355.4859,"ARG_OF_PERICENTER":200.7723,"MEAN_ANOMALY":159.1366,"EPHEMERIS_TYPE":0,"CLASSIFICATION_TYPE":"U","NORAD_CAT_ID":68138,"ELEMENT_SET_NO":999,"REV_AT_EPOCH":212,"BSTAR":3.5879e-5,"MEAN_MOTION_DOT":-8.7e-7,"MEAN_MOTION_DDOT":0},{"OBJECT_NAME":"SHIYAN-30 03","OBJECT_ID":"2026-048A","EPOCH":"2026-03-27T12:12:19.187424","MEAN_MOTION":14.91714859,"ECCENTRICITY":0.0003354,"INCLINATION":35.0011,"RA_OF_ASC_NODE":37.2695,"ARG_OF_PERICENTER":347.5173,"MEAN_ANOMALY":12.5449,"EPHEMERIS_TYPE":0,"CLASSIFICATION_TYPE":"U","NORAD_CAT_ID":68139,"ELEMENT_SET_NO":999,"REV_AT_EPOCH":216,"BSTAR":0.00023544,"MEAN_MOTION_DOT":2.388e-5,"MEAN_MOTION_DDOT":0},{"OBJECT_NAME":"SHIYAN-30 04","OBJECT_ID":"2026-048B","EPOCH":"2026-03-27T13:49:43.969440","MEAN_MOTION":14.91724163,"ECCENTRICITY":0.0001863,"INCLINATION":34.9926,"RA_OF_ASC_NODE":36.871,"ARG_OF_PERICENTER":344.712,"MEAN_ANOMALY":15.3528,"EPHEMERIS_TYPE":0,"CLASSIFICATION_TYPE":"U","NORAD_CAT_ID":68140,"ELEMENT_SET_NO":999,"REV_AT_EPOCH":217,"BSTAR":0.00022601,"MEAN_MOTION_DOT":2.292e-5,"MEAN_MOTION_DDOT":0},{"OBJECT_NAME":"CZ-2D R/B","OBJECT_ID":"2026-048C","EPOCH":"2026-03-27T20:59:46.765248","MEAN_MOTION":14.95557605,"ECCENTRICITY":0.0015006,"INCLINATION":35.1305,"RA_OF_ASC_NODE":34.8862,"ARG_OF_PERICENTER":125.7011,"MEAN_ANOMALY":234.5095,"EPHEMERIS_TYPE":0,"CLASSIFICATION_TYPE":"U","NORAD_CAT_ID":68141,"ELEMENT_SET_NO":999,"REV_AT_EPOCH":222,"BSTAR":0.00014505,"MEAN_MOTION_DOT":1.611e-5,"MEAN_MOTION_DDOT":0},{"OBJECT_NAME":"STARLINK-36604","OBJECT_ID":"2026-049A","EPOCH":"2026-03-27T20:00:01.999008","MEAN_MOTION":15.80832047,"ECCENTRICITY":0.0001152,"INCLINATION":97.2839,"RA_OF_ASC_NODE":106.962,"ARG_OF_PERICENTER":110.9656,"MEAN_ANOMALY":248.9785,"EPHEMERIS_TYPE":0,"CLASSIFICATION_TYPE":"U","NORAD_CAT_ID":68142,"ELEMENT_SET_NO":999,"REV_AT_EPOCH":354,"BSTAR":-0.00025123,"MEAN_MOTION_DOT":-0.00048034,"MEAN_MOTION_DDOT":0},{"OBJECT_NAME":"STARLINK-36995","OBJECT_ID":"2026-049B","EPOCH":"2026-03-27T20:00:01.999008","MEAN_MOTION":15.80806777,"ECCENTRICITY":0.0001104,"INCLINATION":97.2839,"RA_OF_ASC_NODE":106.9635,"ARG_OF_PERICENTER":92.1206,"MEAN_ANOMALY":272.0961,"EPHEMERIS_TYPE":0,"CLASSIFICATION_TYPE":"U","NORAD_CAT_ID":68143,"ELEMENT_SET_NO":999,"REV_AT_EPOCH":353,"BSTAR":9.5748e-5,"MEAN_MOTION_DOT":0.00018229,"MEAN_MOTION_DDOT":0},{"OBJECT_NAME":"STARLINK-37020","OBJECT_ID":"2026-049C","EPOCH":"2026-03-27T14:00:03.000384","MEAN_MOTION":15.80884421,"ECCENTRICITY":0.00010764,"INCLINATION":97.2842,"RA_OF_ASC_NODE":106.703,"ARG_OF_PERICENTER":103.9893,"MEAN_ANOMALY":287.0273,"EPHEMERIS_TYPE":0,"CLASSIFICATION_TYPE":"U","NORAD_CAT_ID":68144,"ELEMENT_SET_NO":999,"REV_AT_EPOCH":349,"BSTAR":-0.00038665196,"MEAN_MOTION_DOT":-0.0007381,"MEAN_MOTION_DDOT":0},{"OBJECT_NAME":"STARLINK-36244","OBJECT_ID":"2026-049D","EPOCH":"2026-03-27T20:00:01.999008","MEAN_MOTION":15.76161261,"ECCENTRICITY":0.0001544,"INCLINATION":97.2838,"RA_OF_ASC_NODE":106.9677,"ARG_OF_PERICENTER":92.0436,"MEAN_ANOMALY":280.9411,"EPHEMERIS_TYPE":0,"CLASSIFICATION_TYPE":"U","NORAD_CAT_ID":68145,"ELEMENT_SET_NO":999,"REV_AT_EPOCH":354,"BSTAR":-0.0092722,"MEAN_MOTION_DOT":-0.01271538,"MEAN_MOTION_DDOT":0},{"OBJECT_NAME":"STARLINK-36980","OBJECT_ID":"2026-049E","EPOCH":"2026-03-27T20:00:01.999008","MEAN_MOTION":15.8084256,"ECCENTRICITY":0.0001461,"INCLINATION":97.284,"RA_OF_ASC_NODE":106.9689,"ARG_OF_PERICENTER":93.6316,"MEAN_ANOMALY":283.4078,"EPHEMERIS_TYPE":0,"CLASSIFICATION_TYPE":"U","NORAD_CAT_ID":68146,"ELEMENT_SET_NO":999,"REV_AT_EPOCH":353,"BSTAR":-0.00030187,"MEAN_MOTION_DOT":-0.00057655,"MEAN_MOTION_DDOT":0},{"OBJECT_NAME":"STARLINK-37055","OBJECT_ID":"2026-049F","EPOCH":"2026-03-27T20:00:01.999008","MEAN_MOTION":15.80821228,"ECCENTRICITY":0.0001253,"INCLINATION":97.2841,"RA_OF_ASC_NODE":106.9645,"ARG_OF_PERICENTER":92.3722,"MEAN_ANOMALY":276.1116,"EPHEMERIS_TYPE":0,"CLASSIFICATION_TYPE":"U","NORAD_CAT_ID":68147,"ELEMENT_SET_NO":999,"REV_AT_EPOCH":353,"BSTAR":-7.2461e-5,"MEAN_MOTION_DOT":-0.00014002,"MEAN_MOTION_DDOT":0},{"OBJECT_NAME":"STARLINK-36981","OBJECT_ID":"2026-049G","EPOCH":"2026-03-27T20:00:01.999008","MEAN_MOTION":15.80833409,"ECCENTRICITY":0.0001371,"INCLINATION":97.2841,"RA_OF_ASC_NODE":106.9721,"ARG_OF_PERICENTER":99.3902,"MEAN_ANOMALY":286.1905,"EPHEMERIS_TYPE":0,"CLASSIFICATION_TYPE":"U","NORAD_CAT_ID":68148,"ELEMENT_SET_NO":999,"REV_AT_EPOCH":353,"BSTAR":-0.00018241,"MEAN_MOTION_DOT":-0.00034971,"MEAN_MOTION_DDOT":0},{"OBJECT_NAME":"STARLINK-36992","OBJECT_ID":"2026-049H","EPOCH":"2026-03-27T20:00:01.999008","MEAN_MOTION":15.80822239,"ECCENTRICITY":0.0001204,"INCLINATION":97.2843,"RA_OF_ASC_NODE":106.974,"ARG_OF_PERICENTER":85.0448,"MEAN_ANOMALY":304.8055,"EPHEMERIS_TYPE":0,"CLASSIFICATION_TYPE":"U","NORAD_CAT_ID":68149,"ELEMENT_SET_NO":999,"REV_AT_EPOCH":353,"BSTAR":1.4693e-5,"MEAN_MOTION_DOT":2.674e-5,"MEAN_MOTION_DDOT":0},{"OBJECT_NAME":"STARLINK-37060","OBJECT_ID":"2026-049J","EPOCH":"2026-03-27T20:00:01.999008","MEAN_MOTION":15.80834266,"ECCENTRICITY":0.0001255,"INCLINATION":97.2842,"RA_OF_ASC_NODE":106.9757,"ARG_OF_PERICENTER":107.8985,"MEAN_ANOMALY":286.2229,"EPHEMERIS_TYPE":0,"CLASSIFICATION_TYPE":"U","NORAD_CAT_ID":68150,"ELEMENT_SET_NO":999,"REV_AT_EPOCH":353,"BSTAR":-8.1507e-5,"MEAN_MOTION_DOT":-0.00015739,"MEAN_MOTION_DDOT":0},{"OBJECT_NAME":"STARLINK-37073","OBJECT_ID":"2026-049K","EPOCH":"2026-03-27T20:00:01.999008","MEAN_MOTION":15.80842572,"ECCENTRICITY":0.0001126,"INCLINATION":97.284,"RA_OF_ASC_NODE":106.9775,"ARG_OF_PERICENTER":112.5545,"MEAN_ANOMALY":285.8408,"EPHEMERIS_TYPE":0,"CLASSIFICATION_TYPE":"U","NORAD_CAT_ID":68151,"ELEMENT_SET_NO":999,"REV_AT_EPOCH":353,"BSTAR":-0.00023319,"MEAN_MOTION_DOT":-0.00044635,"MEAN_MOTION_DDOT":0},{"OBJECT_NAME":"STARLINK-37049","OBJECT_ID":"2026-049L","EPOCH":"2026-03-27T20:00:01.999008","MEAN_MOTION":15.80850413,"ECCENTRICITY":0.0001167,"INCLINATION":97.2841,"RA_OF_ASC_NODE":106.9793,"ARG_OF_PERICENTER":91.569,"MEAN_ANOMALY":311.097,"EPHEMERIS_TYPE":0,"CLASSIFICATION_TYPE":"U","NORAD_CAT_ID":68152,"ELEMENT_SET_NO":999,"REV_AT_EPOCH":353,"BSTAR":-0.00032317,"MEAN_MOTION_DOT":-0.00061704,"MEAN_MOTION_DDOT":0}]
